STARLINK-11168 [DTC]    
1 60183U 24124A   26149.34886058 -.00004288  00000+0 -30527-4 0  9999
2 60183  53.1598 123.5517 0000991 112.8937 247.2186 15.69732393110397
STARLINK-11187 [DTC]    
1 60184U 24124B   26149.34395351  .00002214  00000+0  23126-4 0  9993
2 60184  53.1584 123.5234 0000977 117.4049 242.7068 15.69712299109208
STARLINK-11180 [DTC]    
1 60185U 24124C   26149.33905625  .00001930  00000+0  20792-4 0  9994
2 60185  53.1596 123.4881 0001166 120.4544 239.6589 15.69699274109204
STARLINK-11197 [DTC]    
1 60186U 24124D   26149.20680997  .00001620  00000+0  18239-4 0  9992
2 60186  53.1593 124.0833 0001818 150.7256 209.3864 15.69706528109184
STARLINK-11194 [DTC]    
1 60187U 24124E   26149.32923989  .00001630  00000+0  18303-4 0  9990
2 60187  53.1586 123.4234 0000832  72.0742 288.0367 15.69708434109209
STARLINK-11189 [DTC]    
1 60188U 24124F   26149.19710383  .00001198  00000+0  14753-4 0  9992
2 60188  53.1598 124.7531 0001261 108.2333 251.8822 15.69700508109176
STARLINK-11183 [DTC]    
1 60189U 24124G   26149.19219395  .00001276  00000+0  15390-4 0  9995
2 60189  53.1591 124.7223 0001121  75.0909 285.0233 15.69711713109178
STARLINK-11179 [DTC]    
1 60190U 24124H   26149.31462848  .00002187  00000+0  22911-4 0  9993
2 60190  53.1602 124.0593 0001169 109.5610 250.5535 15.69703360109193
STARLINK-11175 [DTC]    
1 60191U 24124J   26149.18238572 -.00000567  00000+0  18118-6 0  9991
2 60191  53.1570 124.6533 0001244 102.5163 257.5994 15.69709730109179
STARLINK-11173 [DTC]    
1 60192U 24124K   26149.30481482  .00000880  00000+0  12116-4 0  9993
2 60192  53.1585 123.9938 0000854  96.5829 263.5286 15.69712379109190
STARLINK-11172 [DTC]    
1 60193U 24124L   26149.23624961  .00000082  00000+0  55338-5 0  9995
2 60193  53.1609 124.2742 0000976  78.9970 281.1158 15.69698342109187
STARLINK-11152 [DTC]    
1 60194U 24124M   26149.35867669  .00017049  00000+0  14513-3 0  9992
2 60194  53.1575 123.6122 0001532 140.3845 219.7286 15.69737004110392
STARLINK-11193 [DTC]    
1 60195U 24124N   26149.48111822  .00000404  00000+0  81980-5 0  9991
2 60195  53.1594 122.9530 0001027  74.5377 285.5754 15.69691905109226
STARLINK-31869          
1 60196U 24124P   26149.44099437  .00000964  00000+0  42821-4 0  9996
2 60196  53.1611 307.0945 0001188  80.0316 280.0820 15.31700501106667
STARLINK-32023          
1 60197U 24124Q   26148.68806005 -.00001896  00000+0 -45017-4 0  9996
2 60197  53.1605 310.2186 0000922  99.5642 260.5465 15.34393582106552
STARLINK-32046          
1 60198U 24124R   26149.45966520 -.00000240  00000+0  40550-5 0  9991
2 60198  53.1626 307.2056 0001559 109.5205 250.5965 15.31704006107898
STARLINK-32049          
1 60199U 24124S   26149.41717907  .00000062  00000+0  12962-4 0  9997
2 60199  53.1616 306.9467 0001081  90.7371 269.3756 15.34387273107897
STARLINK-32002          
1 60200U 24124T   26149.44566889 -.00002268  00000+0 -61359-4 0  9990
2 60200  53.1617 307.1195 0000978  80.5642 279.5470 15.31700959106661
STARLINK-32020          
1 60201U 24124U   26149.44793112 -.00001075  00000+0 -24209-4 0  9990
2 60201  53.1604 307.1246 0000867  80.2773 279.8325 15.30188591106667
STARLINK-32041          
1 60202U 24124V   26149.58549921  .00021785  00000+0  71175-3 0  9994
2 60202  53.1591 306.5679 0001439  96.9757 263.1408 15.31699639107882
STARLINK-32138          
1 60255U 24131A   26149.10925650  .00003264  00000+0  11685-3 0  9997
2 60255  53.1612  38.7197 0001273  92.0026 268.1121 15.31714683104336
STARLINK-32212          
1 60256U 24131B   26149.08427739  .00001738  00000+0  70818-4 0  9998
2 60256  53.1613  39.2822 0001292  97.4710 262.6438 15.30191124104023
STARLINK-32166          
1 60257U 24131C   26149.09060969  .00001147  00000+0  50848-4 0  9993
2 60257  53.1612  39.3113 0001236 100.7314 259.3826 15.30188614104027
STARLINK-32200          
1 60258U 24131D   26149.08216579  .00000616  00000+0  32940-4 0  9996
2 60258  53.1607  39.2587 0001240 105.0429 255.0709 15.30192268104029
STARLINK-32207          
1 60259U 24131E   26149.01474211  .00000492  00000+0  28740-4 0  9994
2 60259  53.1604  39.5596 0001070 107.9688 252.1430 15.30192281104012
STARLINK-32125          
1 60260U 24131F   26149.02939154  .00002595  00000+0  99692-4 0  9999
2 60260  53.1605  38.9356 0001141  80.1035 280.0095 15.30202285104023
STARLINK-32160          
1 60261U 24131G   26149.08529195  .00005215  00000+0  18788-3 0  9994
2 60261  53.1613  39.2712 0001261  97.6638 262.4506 15.30234137104075
STARLINK-32163          
1 60262U 24131H   26149.08591002  .00003837  00000+0  13529-3 0  9997
2 60262  53.1615  38.5721 0001274  88.4142 271.7005 15.31716494104037
STARLINK-32148          
1 60263U 24131J   26148.98810716  .00008060  00000+0  27147-3 0  9996
2 60263  53.1625  39.3846 0001447 124.8215 235.2923 15.31669774104069
STARLINK-32121          
1 60264U 24131K   26149.13059610  .00002728  00000+0  10422-3 0  9996
2 60264  53.1623  38.8506 0001256  82.7573 277.3571 15.30194226104084
STARLINK-32120          
1 60265U 24131L   26149.08857308 -.00003532  00000+0 -11020-3 0  9992
2 60265  53.1616  39.2966 0001393 114.1931 245.9215 15.29332572104073
STARLINK-32205          
1 60266U 24131M   26149.07202251  .00000618  00000+0  31667-4 0  9993
2 60266  53.1618  39.2053 0001174 114.9592 245.1532 15.31698052104021
STARLINK-32158          
1 60267U 24131N   26149.11053825 -.00002973  00000+0 -88246-4 0  9993
2 60267  53.1613  38.7210 0001458  72.7857 287.3304 15.30209123103936
STARLINK-32167          
1 60268U 24131P   26149.03045656  .00000979  00000+0  45197-4 0  9998
2 60268  53.1609  38.9495 0001214  85.5225 274.5915 15.30195663104019
STARLINK-32144          
1 60269U 24131Q   26149.03001256  .00001475  00000+0  59291-4 0  9999
2 60269  53.1616  38.9298 0001422 102.2603 257.8558 15.31696496104071
STARLINK-32211          
1 60270U 24131R   26149.08744333  .00000974  00000+0  45017-4 0  9990
2 60270  53.1608  39.3010 0001239 104.1448 255.9691 15.30193076104022
STARLINK-32164          
1 60271U 24131S   26148.96103279  .00003157  00000+0  11874-3 0  9994
2 60271  53.1615  39.9232 0001215  97.1954 262.9185 15.30175687103900
STARLINK-32128          
1 60272U 24131T   26148.97675503  .00001315  00000+0  56554-4 0  9999
2 60272  53.1612  39.3125 0001212  78.0151 282.0986 15.30186463104016
STARLINK-32206          
1 60273U 24131U   26149.08109336  .00003805  00000+0  14050-3 0  9999
2 60273  53.1613  39.2603 0001307  98.9177 261.1972 15.30209158104023
STARLINK-32155          
1 60274U 24131V   26149.13260090  .00012219  00000+0  40453-3 0  9996
2 60274  53.1614  38.8606 0001265  97.8828 262.2317 15.31725938103931
STARLINK-32152          
1 60275U 24131W   26149.10421241  .00000950  00000+0  44216-4 0  9992
2 60275  53.1609  38.6815 0001169  96.4245 263.6889 15.30194042103931
STARLINK-32154          
1 60276U 24131X   26149.09787637  .00001628  00000+0  67103-4 0  9998
2 60276  53.1620  38.6373 0001501 103.9616 256.1552 15.30196070104039
STARLINK-32135          
1 60277U 24131Y   26149.11479481 -.00002917  00000+0 -86502-4 0  9995
2 60277  53.1609  38.7456 0001242  86.1149 273.9994 15.30164264104032
STARLINK-32156          
1 60278U 24132A   26149.10527729  .00003128  00000+0  11768-3 0  9999
2 60278  53.1617  38.8162 0001314  96.8576 263.2575 15.30204839105096
STARLINK-32010          
1 60279U 24132B   26149.11826198  .00003494  00000+0  12421-3 0  9996
2 60279  53.1619  38.9049 0001122  83.4404 276.6726 15.31723046103870
STARLINK-32118          
1 60280U 24132C   26149.09896168  .00002641  00000+0  10128-3 0  9994
2 60280  53.1610  38.7750 0001314  80.8586 279.2564 15.30194687103876
STARLINK-32038          
1 60281U 24132D   26148.97044163  .00000103  00000+0  15596-4 0  9997
2 60281  53.1610  39.3944 0001321 103.9667 256.1480 15.30185437103856
STARLINK-32113          
1 60282U 24132E   26148.97148393  .00002841  00000+0  10800-3 0  9991
2 60282  53.1608  39.4048 0001254  91.3164 268.7980 15.30200305103853
STARLINK-32037          
1 60283U 24132F   26149.12217193  .00000640  00000+0  33740-4 0  9999
2 60283  53.1613  38.9223 0000985  97.9830 262.1283 15.30198567103873
STARLINK-32123          
1 60284U 24132G   26148.92990571 -.00000520  00000+0 -54242-5 0  9995
2 60284  53.1625  27.0875 0001445  88.5556 271.5610 15.30177588104028
STARLINK-32122          
1 60285U 24132H   26149.11585959 -.00000983  00000+0 -21105-4 0  9992
2 60285  53.1605  38.8829 0001062  79.3429 280.7691 15.30174951103872
STARLINK-31656          
1 60286U 24132J   26149.09262281  .00000390  00000+0  25302-4 0  9993
2 60286  53.1612  38.7464 0001390 104.3608 255.7547 15.30196724103871
STARLINK-32114          
1 60287U 24132K   26149.06703595  .00001390  00000+0  56551-4 0  9990
2 60287  53.1629  39.2892 0001353  78.1766 281.9387 15.31704880103864
STARLINK-31997          
1 60288U 24132L   26149.08311023  .00002332  00000+0  90822-4 0  9990
2 60288  53.1620  38.6734 0001322 114.8651 245.2487 15.30209700103876
STARLINK-32000          
1 60289U 24132M   26149.09960729  .00001360  00000+0  55578-4 0  9994
2 60289  53.1616  38.7863 0001235  76.0008 284.1131 15.31705751103870
STARLINK-32141          
1 60290U 24132N   26149.10951978  .00006694  00000+0  23796-3 0  9995
2 60290  53.1605  38.8441 0000919  80.4797 279.6307 15.30196130103873
STARLINK-32142          
1 60291U 24132P   26149.08842500 -.00000858  00000+0 -16855-4 0  9990
2 60291  53.1620  38.7082 0001429 113.7876 246.3274 15.30163508103873
STARLINK-32149          
1 60292U 24132Q   26149.12329073  .00000078  00000+0  14271-4 0  9993
2 60292  53.1631  38.9268 0001128  89.6227 270.4904 15.31697061103876
STARLINK-32159          
1 60293U 24132R   26149.08629027  .00000819  00000+0  39791-4 0  9998
2 60293  53.1618  38.6980 0001377  99.3801 260.7356 15.30193970103874
